ALOS (DAICHI)           
1 28931U 06002A   26104.10576658  .00000708  00000+0  12664-3 0  9998
2 28931  98.1273  59.8999 0001542 113.4597 246.6771 14.69917880 78681
H-2A R/B                
1 28932U 06002B   26103.37479854  .00005673  00000+0  27935-3 0  9990
2 28932  98.2472 253.4166 0052570 123.2906 237.3377 15.17217503 99694
RESURS-DK 1             
1 29228U 06021A   26104.17362176  .00001129  00000+0  69999-4 0  9996
2 29228  69.9299 145.2246 0002416   8.7511 351.3697 15.12946157 92891
CZ-4B R/B               
1 29507U 06046C   26104.09450354  .00002483  00000+0  12638-3 0  9991
2 29507  97.5527 148.9030 0034102 142.8081 217.5524 15.17268771 65416
CZ-2C R/B               
1 31114U 07010B   26104.30326616  .00000066  00000+0  49136-4 0  9996
2 31114  98.4019 215.8037 0058890 189.5358 170.4706 14.20259590984775
COSMO-SKYMED 1          
1 31598U 07023A   26104.23200630  .00001472  00000+0  13387-3 0  9995
2 31598  97.8880 295.5565 0001468  86.1602 273.9787 14.96797294 20224
COSMOS 2428             
1 31792U 07029A   26104.14458336 -.00000119  00000+0 -38224-4 0  9992
2 31792  70.9401 128.9279 0009544 239.3817 120.6363 14.12948308969104
SL-16 R/B               
1 31793U 07029B   26104.25751975 -.00000170  00000+0 -63180-4 0  9996
2 31793  70.9728  97.6172 0002782 272.5900  98.4066 14.14841512970408
KORONAS-FOTON           
1 33504U 09003A   26104.08943927  .00008367  00000+0  18041-3 0  9992
2 33504  82.4290 239.0440 0010843  33.4099 326.7831 15.44329412951200
CZ-2C R/B               
1 37731U 11030B   26103.62402992  .00000649  00000+0  88238-4 0  9993
2 37731  97.8600  60.2051 0051157 235.8250 297.7664 14.81337202795262
H-2A R/B                
1 38341U 12025E   26103.86019785  .00002015  00000+0  18530-3 0  9992
2 38341  98.4785  73.7425 0043849 195.7960 164.1894 14.95398840753475
SHIJIAN-16 (SJ-16)      
1 39358U 13057A   26104.29212329  .00000292  00000+0  31313-4 0  9994
2 39358  74.9706 117.6848 0015690  20.6872 339.4948 14.92456527676817
SL-4 R/B                
1 39679U 14021B   26104.19384243  .00006886  00000+0  15310-3 0  9999
2 39679  51.6060 163.9064 0093330 232.7119 126.5330 15.40445685661742
ALOS-2                  
1 39766U 14029A   26104.29371568  .00000085  00000+0  18316-4 0  9996
2 39766  97.9191 202.3732 0001789  91.6313 268.5104 14.79476193642139
YAOGAN-29               
1 41038U 15069A   26104.28435684 -.00000236  00000+0 -22382-4 0  9993
2 41038  98.0097 132.8015 0000845 160.7132 199.4114 14.83031599561158
ASTRO-H (HITOMI)        
1 41337U 16012A   26104.26068491  .00001706  00000+0  96056-4 0  9990
2 41337  30.9979 126.9558 0009569 328.8568  31.1502 15.10224341557611
HXMT (HUIYAN)           
1 42758U 17034A   26104.31652600  .00002618  00000+0  13707-3 0  9994
2 42758  43.0133 178.5302 0030354 100.4002 260.0270 15.17923765487956
