[{"OBJECT_NAME":"ALOS (DAICHI)","OBJECT_ID":"2006-002A","EPOCH":"2026-04-14T02:32:18.232512","MEAN_MOTION":14.6991788,"ECCENTRICITY":0.00015423,"INCLINATION":98.1273,"RA_OF_ASC_NODE":59.8999,"ARG_OF_PERICENTER":113.4597,"MEAN_ANOMALY":246.6771,"EPHEMERIS_TYPE":0,"CLASSIFICATION_TYPE":"U","NORAD_CAT_ID":28931,"ELEMENT_SET_NO":999,"REV_AT_EPOCH":7868,"BSTAR":0.00012664016,"MEAN_MOTION_DOT":7.08e-6,"MEAN_MOTION_DDOT":0},{"OBJECT_NAME":"H-2A R/B","OBJECT_ID":"2006-002B","EPOCH":"2026-04-13T08:59:42.593856","MEAN_MOTION":15.17217503,"ECCENTRICITY":0.005257,"INCLINATION":98.2472,"RA_OF_ASC_NODE":253.4166,"ARG_OF_PERICENTER":123.2906,"MEAN_ANOMALY":237.3377,"EPHEMERIS_TYPE":0,"CLASSIFICATION_TYPE":"U","NORAD_CAT_ID":28932,"ELEMENT_SET_NO":999,"REV_AT_EPOCH":9969,"BSTAR":0.00027935,"MEAN_MOTION_DOT":5.673e-5,"MEAN_MOTION_DDOT":0},{"OBJECT_NAME":"RESURS-DK 1","OBJECT_ID":"2006-021A","EPOCH":"2026-04-14T04:10:00.920064","MEAN_MOTION":15.12946157,"ECCENTRICITY":0.00024162,"INCLINATION":69.9299,"RA_OF_ASC_NODE":145.2246,"ARG_OF_PERICENTER":8.7511,"MEAN_ANOMALY":351.3697,"EPHEMERIS_TYPE":0,"CLASSIFICATION_TYPE":"U","NORAD_CAT_ID":29228,"ELEMENT_SET_NO":999,"REV_AT_EPOCH":9289,"BSTAR":6.9998505e-5,"MEAN_MOTION_DOT":1.129e-5,"MEAN_MOTION_DDOT":0},{"OBJECT_NAME":"CZ-4B R/B","OBJECT_ID":"2006-046C","EPOCH":"2026-04-14T02:16:05.105856","MEAN_MOTION":15.17268771,"ECCENTRICITY":0.00341024,"INCLINATION":97.5527,"RA_OF_ASC_NODE":148.903,"ARG_OF_PERICENTER":142.8081,"MEAN_ANOMALY":217.5524,"EPHEMERIS_TYPE":0,"CLASSIFICATION_TYPE":"U","NORAD_CAT_ID":29507,"ELEMENT_SET_NO":999,"REV_AT_EPOCH":6541,"BSTAR":0.00012638266,"MEAN_MOTION_DOT":2.483e-5,"MEAN_MOTION_DDOT":0},{"OBJECT_NAME":"CZ-2C R/B","OBJECT_ID":"2007-010B","EPOCH":"2026-04-14T07:16:42.196224","MEAN_MOTION":14.2025959,"ECCENTRICITY":0.00588902,"INCLINATION":98.4019,"RA_OF_ASC_NODE":215.8037,"ARG_OF_PERICENTER":189.5358,"MEAN_ANOMALY":170.4706,"EPHEMERIS_TYPE":0,"CLASSIFICATION_TYPE":"U","NORAD_CAT_ID":31114,"ELEMENT_SET_NO":999,"REV_AT_EPOCH":98477,"BSTAR":4.9136279e-5,"MEAN_MOTION_DOT":6.6e-7,"MEAN_MOTION_DDOT":0},{"OBJECT_NAME":"COSMO-SKYMED 1","OBJECT_ID":"2007-023A","EPOCH":"2026-04-14T05:34:05.344320","MEAN_MOTION":14.96797294,"ECCENTRICITY":0.00014687,"INCLINATION":97.888,"RA_OF_ASC_NODE":295.5565,"ARG_OF_PERICENTER":86.1602,"MEAN_ANOMALY":273.9787,"EPHEMERIS_TYPE":0,"CLASSIFICATION_TYPE":"U","NORAD_CAT_ID":31598,"ELEMENT_SET_NO":999,"REV_AT_EPOCH":2022,"BSTAR":0.00013387061,"MEAN_MOTION_DOT":1.472e-5,"MEAN_MOTION_DDOT":0},{"OBJECT_NAME":"COSMOS 2428","OBJECT_ID":"2007-029A","EPOCH":"2026-04-14T03:28:12.002304","MEAN_MOTION":14.12948308,"ECCENTRICITY":0.00095446,"INCLINATION":70.9401,"RA_OF_ASC_NODE":128.9279,"ARG_OF_PERICENTER":239.3817,"MEAN_ANOMALY":120.6363,"EPHEMERIS_TYPE":0,"CLASSIFICATION_TYPE":"U","NORAD_CAT_ID":31792,"ELEMENT_SET_NO":999,"REV_AT_EPOCH":96910,"BSTAR":-3.8224457e-5,"MEAN_MOTION_DOT":-1.19e-6,"MEAN_MOTION_DDOT":0},{"OBJECT_NAME":"SL-16 R/B","OBJECT_ID":"2007-029B","EPOCH":"2026-04-14T06:10:49.706400","MEAN_MOTION":14.14841512,"ECCENTRICITY":0.00027827,"INCLINATION":70.9728,"RA_OF_ASC_NODE":97.6172,"ARG_OF_PERICENTER":272.59,"MEAN_ANOMALY":98.4066,"EPHEMERIS_TYPE":0,"CLASSIFICATION_TYPE":"U","NORAD_CAT_ID":31793,"ELEMENT_SET_NO":999,"REV_AT_EPOCH":97040,"BSTAR":-6.3179955e-5,"MEAN_MOTION_DOT":-1.7e-6,"MEAN_MOTION_DDOT":0},{"OBJECT_NAME":"KORONAS-FOTON","OBJECT_ID":"2009-003A","EPOCH":"2026-04-14T02:08:47.552928","MEAN_MOTION":15.44329412,"ECCENTRICITY":0.00108434,"INCLINATION":82.429,"RA_OF_ASC_NODE":239.044,"ARG_OF_PERICENTER":33.4099,"MEAN_ANOMALY":326.7831,"EPHEMERIS_TYPE":0,"CLASSIFICATION_TYPE":"U","NORAD_CAT_ID":33504,"ELEMENT_SET_NO":999,"REV_AT_EPOCH":95120,"BSTAR":0.00018040824,"MEAN_MOTION_DOT":8.367e-5,"MEAN_MOTION_DDOT":0},{"OBJECT_NAME":"CZ-2C R/B","OBJECT_ID":"2011-030B","EPOCH":"2026-04-13T14:58:36.185088","MEAN_MOTION":14.81337202,"ECCENTRICITY":0.0051157,"INCLINATION":97.86,"RA_OF_ASC_NODE":60.2051,"ARG_OF_PERICENTER":235.825,"MEAN_ANOMALY":297.7664,"EPHEMERIS_TYPE":0,"CLASSIFICATION_TYPE":"U","NORAD_CAT_ID":37731,"ELEMENT_SET_NO":999,"REV_AT_EPOCH":79526,"BSTAR":8.8238e-5,"MEAN_MOTION_DOT":6.49e-6,"MEAN_MOTION_DDOT":0},{"OBJECT_NAME":"H-2A R/B","OBJECT_ID":"2012-025E","EPOCH":"2026-04-13T20:38:41.094240","MEAN_MOTION":14.9539884,"ECCENTRICITY":0.0043849,"INCLINATION":98.4785,"RA_OF_ASC_NODE":73.7425,"ARG_OF_PERICENTER":195.796,"MEAN_ANOMALY":164.1894,"EPHEMERIS_TYPE":0,"CLASSIFICATION_TYPE":"U","NORAD_CAT_ID":38341,"ELEMENT_SET_NO":999,"REV_AT_EPOCH":75347,"BSTAR":0.0001853,"MEAN_MOTION_DOT":2.015e-5,"MEAN_MOTION_DDOT":0},{"OBJECT_NAME":"SHIJIAN-16 (SJ-16)","OBJECT_ID":"2013-057A","EPOCH":"2026-04-14T07:00:39.452256","MEAN_MOTION":14.92456527,"ECCENTRICITY":0.001569,"INCLINATION":74.9706,"RA_OF_ASC_NODE":117.6848,"ARG_OF_PERICENTER":20.6872,"MEAN_ANOMALY":339.4948,"EPHEMERIS_TYPE":0,"CLASSIFICATION_TYPE":"U","NORAD_CAT_ID":39358,"ELEMENT_SET_NO":999,"REV_AT_EPOCH":67681,"BSTAR":3.1312775e-5,"MEAN_MOTION_DOT":2.92e-6,"MEAN_MOTION_DDOT":0},{"OBJECT_NAME":"SL-4 R/B","OBJECT_ID":"2014-021B","EPOCH":"2026-04-14T04:39:07.985952","MEAN_MOTION":15.40445685,"ECCENTRICITY":0.00933308,"INCLINATION":51.606,"RA_OF_ASC_NODE":163.9064,"ARG_OF_PERICENTER":232.7119,"MEAN_ANOMALY":126.533,"EPHEMERIS_TYPE":0,"CLASSIFICATION_TYPE":"U","NORAD_CAT_ID":39679,"ELEMENT_SET_NO":999,"REV_AT_EPOCH":66174,"BSTAR":0.00015309741,"MEAN_MOTION_DOT":6.886e-5,"MEAN_MOTION_DDOT":0},{"OBJECT_NAME":"ALOS-2","OBJECT_ID":"2014-029A","EPOCH":"2026-04-14T07:02:57.034752","MEAN_MOTION":14.79476193,"ECCENTRICITY":0.00017895,"INCLINATION":97.9191,"RA_OF_ASC_NODE":202.3732,"ARG_OF_PERICENTER":91.6313,"MEAN_ANOMALY":268.5104,"EPHEMERIS_TYPE":0,"CLASSIFICATION_TYPE":"U","NORAD_CAT_ID":39766,"ELEMENT_SET_NO":999,"REV_AT_EPOCH":64213,"BSTAR":1.8315793e-5,"MEAN_MOTION_DOT":8.5e-7,"MEAN_MOTION_DDOT":0},{"OBJECT_NAME":"YAOGAN-29","OBJECT_ID":"2015-069A","EPOCH":"2026-04-14T06:49:28.430976","MEAN_MOTION":14.83031599,"ECCENTRICITY":8.453e-5,"INCLINATION":98.0097,"RA_OF_ASC_NODE":132.8015,"ARG_OF_PERICENTER":160.7132,"MEAN_ANOMALY":199.4114,"EPHEMERIS_TYPE":0,"CLASSIFICATION_TYPE":"U","NORAD_CAT_ID":41038,"ELEMENT_SET_NO":999,"REV_AT_EPOCH":56115,"BSTAR":-2.2382094e-5,"MEAN_MOTION_DOT":-2.36e-6,"MEAN_MOTION_DDOT":0},{"OBJECT_NAME":"ASTRO-H (HITOMI)","OBJECT_ID":"2016-012A","EPOCH":"2026-04-14T06:15:23.176224","MEAN_MOTION":15.10224341,"ECCENTRICITY":0.00095698,"INCLINATION":30.9979,"RA_OF_ASC_NODE":126.9558,"ARG_OF_PERICENTER":328.8568,"MEAN_ANOMALY":31.1502,"EPHEMERIS_TYPE":0,"CLASSIFICATION_TYPE":"U","NORAD_CAT_ID":41337,"ELEMENT_SET_NO":999,"REV_AT_EPOCH":55761,"BSTAR":9.6055711e-5,"MEAN_MOTION_DOT":1.706e-5,"MEAN_MOTION_DDOT":0},{"OBJECT_NAME":"HXMT (HUIYAN)","OBJECT_ID":"2017-034A","EPOCH":"2026-04-14T07:35:47.846400","MEAN_MOTION":15.17923765,"ECCENTRICITY":0.00303547,"INCLINATION":43.0133,"RA_OF_ASC_NODE":178.5302,"ARG_OF_PERICENTER":100.4002,"MEAN_ANOMALY":260.027,"EPHEMERIS_TYPE":0,"CLASSIFICATION_TYPE":"U","NORAD_CAT_ID":42758,"ELEMENT_SET_NO":999,"REV_AT_EPOCH":48795,"BSTAR":0.00013707254,"MEAN_MOTION_DOT":2.618e-5,"MEAN_MOTION_DDOT":0}]
